PERSEUS-M1              
1 40039U 14033AF  26167.30022841  .00001194  00000+0  11289-3 0  9997
2 40039  97.9641 111.4175 0010378 304.7974  55.2269 14.95628646650503
POLYITAN-1              
1 40042U 14033AJ  26167.33439290  .00015525  00000+0  48532-3 0  9998
2 40042  98.0938 193.5148 0008570 143.7303 216.4519 15.33231396653469
TIGRISAT                
1 40043U 14033AK  26167.30737261  .00001804  00000+0  21230-3 0  9996
2 40043  97.7829 317.3387 0050613  78.0534 282.6349 14.85160108645495
AEROCUBE 6A             
1 40045U 14033AM  26166.42054341  .00004928  00000+0  41492-3 0  9993
2 40045  97.7236 333.3875 0039064  24.0890 336.2149 14.98093876646353
AEROCUBE 6B             
1 40046U 14033AN  26167.02514064  .00004320  00000+0  35097-3 0  9994
2 40046  97.7238 333.7735 0038391  13.3701 346.8531 14.99560720646584
CANX-4                  
1 40055U 14034C   26167.20618813  .00000787  00000+0  10816-3 0  9997
2 40055  98.3123  42.4833 0013240  20.1367 340.0364 14.81263203644380
CANX-5                  
1 40056U 14034D   26167.20463274  .00000793  00000+0  10898-3 0  9994
2 40056  98.3125  42.5251 0013248  20.3227 339.8509 14.81280438635198
UKUBE-1                 
1 40074U 14037F   26166.97825777  .00006932  00000+0  39104-3 0  9992
2 40074  98.4228 170.1231 0002573 133.9815 226.1626 15.13537995648373
BRITE-PL2 (HEWELIUSZ)   
1 40119U 14049B   26167.30201463  .00001445  00000+0  13881-3 0  9991
2 40119  97.9097 279.2951 0015250 111.1081 249.1771 14.94590679641319
AEROCUBE 5C             
1 40965U 15058B   26166.62860330  .00002030  00000+0  18717-3 0  9993
2 40965  64.7679 267.4387 0130683  63.8761 297.5728 14.91447915365429
AEROCUBE 7              
1 40966U 15058C   26167.29800356  .00002709  00000+0  22389-3 0  9993
2 40966  64.7622 247.6011 0120427  62.0527 299.2716 14.95721159365827
FOX-1A (AO-85)          
1 40967U 15058D   26166.74276637  .00002067  00000+0  19289-3 0  9994
2 40967  64.7762 283.4725 0130368  57.1508 304.2075 14.90963979113359
SINOD-D 1               
1 40968U 15058E   26167.00864877  .00002642  00000+0  21844-3 0  9993
2 40968  64.7759 262.6033 0118979  53.5359 307.6650 14.95899841116489
SNAP-3 ALICE            
1 40970U 15058G   26167.21212050  .00102365  00000+0  12284-2 0  9999
2 40970  64.7502 107.3013 0028398  13.4186 346.7708 15.59861709116738
LMRST-SAT               
1 40971U 15058H   26167.03316122  .00001837  00000+0  17422-3 0  9997
2 40971  64.7767 278.9055 0132014  59.0663 302.3347 14.90585676113385
SNAP-3 EDDIE            
1 40972U 15058J   26167.20297866  .00111481  00000+0  12728-2 0  9990
2 40972  64.7427  98.0649 0027903  17.4449 342.7649 15.61139150118872
PROPCUBE 3              
1 40973U 15058K   26166.53616005  .00002455  00000+0  21059-3 0  9994
2 40973  64.7688 257.6942 0123954  60.5643 300.7773 14.94250037114555
BISONSAT                
1 40974U 15058L   26167.30763095  .00009756  00000+0  47415-3 0  9998
2 40974  64.7577 176.4885 0078959  47.6483 313.1292 15.16172394115480
SNAP-3 JIMI             
1 40975U 15058M   26167.25723303  .00003579  00000+0  25193-3 0  9997
2 40975  64.7638 222.7151 0106111  55.7451 305.3661 15.02291557114083
PROPCUBE 1 (FLORA)      
1 40976U 15058N   26166.71841724  .00002053  00000+0  20034-3 0  9991
2 40976  64.7756 299.7878 0130672  61.4958 299.9240 14.89216736116049
SINOD-D 3               
1 40977U 15058P   26167.03614662  .00002706  00000+0  23458-3 0  9995
2 40977  64.7737 279.4132 0119217  58.5809 302.6897 14.94010330114586
HORYU-4                 
1 41340U 16012D   26166.43547623  .00392649  54783-4  97992-3 0  9990
2 41340  30.9849  91.8834 0005149 261.3375  98.6703 15.94546005570538
RAVAN                   
1 41849U 16067B   26167.20692306  .00041670  00000+0  62973-3 0  9993
2 41849  97.9887  56.6661 0004577  35.0328 325.1224 15.54600070527540
CELTEE 1                
1 41850U 16067C   26167.15358719  .00004100  00000+0  19583-3 0  9992
2 41850  98.0670  33.6503 0000909 125.3838 234.7480 15.19674343525720
OPTICUBE 04             
1 41851U 16067D   26167.15124484  .00001943  00000+0  12481-3 0  9995
2 41851  98.0695  19.3809 0016845 118.8565 241.4355 15.09654618525018
AEROCUBE 8D             
1 41852U 16067E   26167.17096143  .00006049  00000+0  25016-3 0  9998
2 41852  98.0680  37.2651 0004643 125.6494 234.5174 15.24386276525917
AEROCUBE 8C             
1 41853U 16067F   26167.19611539  .00006006  00000+0  24649-3 0  9997
2 41853  98.0550  34.5211 0006643  71.7801 288.4158 15.24634486525910
CORVUS BC2              
1 42846U 17042X   26167.26483826  .00003615  00000+0  24964-3 0  9991
2 42846  97.4061 328.6501 0014266 113.4220 246.8509 15.06291357486922
CORVUS BC1              
1 42847U 17042Y   26167.25955203  .00003286  00000+0  22629-3 0  9994
2 42847  97.4096 329.4586 0013297  91.9909 268.2841 15.06461751486957
MAKERSAT 0              
1 43016U 17073D   26167.20024260  .00014594  00000+0  39787-3 0  9999
2 43016  97.4625  49.7119 0105140 276.5559  82.3722 15.32072415466314
