OBJECT_NAME,OBJECT_ID,EPOCH,MEAN_MOTION,ECCENTRICITY,INCLINATION,RA_OF_ASC_NODE,ARG_OF_PERICENTER,MEAN_ANOMALY,EPHEMERIS_TYPE,CLASSIFICATION_TYPE,NORAD_CAT_ID,ELEMENT_SET_NO,REV_AT_EPOCH,BSTAR,MEAN_MOTION_DOT,MEAN_MOTION_DDOT
PERSEUS-M1,2014-033AF,2026-06-16T07:12:19.734624,14.95628646,.00103785,97.9641,111.4175,304.7974,55.2269,0,U,40039,999,65050,.11289495E-3,.1194E-4,0
POLYITAN-1,2014-033AJ,2026-06-16T08:01:31.546560,15.33231396,.00085708,98.0938,193.5148,143.7303,216.4519,0,U,40042,999,65346,.48532229E-3,.15525E-3,0
TIGRISAT,2014-033AK,2026-06-16T07:22:36.993504,14.85160108,.00506137,97.7829,317.3387,78.0534,282.6349,0,U,40043,999,64549,.21229761E-3,.1804E-4,0
AEROCUBE 6A,2014-033AM,2026-06-15T10:05:34.950624,14.98093876,.00390644,97.7236,333.3875,24.0890,336.2149,0,U,40045,999,64635,.41491623E-3,.4928E-4,0
AEROCUBE 6B,2014-033AN,2026-06-16T00:36:12.151296,14.99560720,.00383911,97.7238,333.7735,13.3701,346.8531,0,U,40046,999,64658,.35096716E-3,.432E-4,0
CANX-4,2014-034C,2026-06-16T04:56:54.654432,14.81263203,.00132409,98.3123,42.4833,20.1367,340.0364,0,U,40055,999,64438,.10816071E-3,.787E-5,0
CANX-5,2014-034D,2026-06-16T04:54:40.268736,14.81280438,.00132485,98.3125,42.5251,20.3227,339.8509,0,U,40056,999,63519,.10897893E-3,.793E-5,0
UKUBE-1,2014-037F,2026-06-15T23:28:41.471328,15.13537995,.00025738,98.4228,170.1231,133.9815,226.1626,0,U,40074,999,64837,.3910357E-3,.6932E-4,0
BRITE-PL2 (HEWELIUSZ),2014-049B,2026-06-16T07:14:54.064032,14.94590679,.00152506,97.9097,279.2951,111.1081,249.1771,0,U,40119,999,64131,.13880633E-3,.1445E-4,0
AEROCUBE 5C,2015-058B,2026-06-15T15:05:11.325120,14.91447915,.0130683,64.7679,267.4387,63.8761,297.5728,0,U,40965,999,36542,.1871662E-3,.203E-4,0
AEROCUBE 7,2015-058C,2026-06-16T07:09:07.507584,14.95721159,.01204274,64.7622,247.6011,62.0527,299.2716,0,U,40966,999,36582,.22388928E-3,.2709E-4,0
FOX-1A (AO-85),2015-058D,2026-06-15T17:49:35.014368,14.90963979,.01303689,64.7762,283.4725,57.1508,304.2075,0,U,40967,999,11335,.19289249E-3,.2067E-4,0
SINOD-D 1,2015-058E,2026-06-16T00:12:27.253728,14.95899841,.01189793,64.7759,262.6033,53.5359,307.6650,0,U,40968,999,11648,.2184397E-3,.2642E-4,0
SNAP-3 ALICE,2015-058G,2026-06-16T05:05:27.211200,15.59861709,.00283988,64.7502,107.3013,13.4186,346.7708,0,U,40970,999,11673,.12284326E-2,.102365E-2,0
LMRST-SAT,2015-058H,2026-06-16T00:47:45.129408,14.90585676,.01320142,64.7767,278.9055,59.0663,302.3347,0,U,40971,999,11338,.17421974E-3,.1837E-4,0
SNAP-3 EDDIE,2015-058J,2026-06-16T04:52:17.356224,15.61139150,.00279033,64.7427,98.0649,17.4449,342.7649,0,U,40972,999,11887,.12727681E-2,.111481E-2,0
PROPCUBE 3,2015-058K,2026-06-15T12:52:04.228320,14.94250037,.01239545,64.7688,257.6942,60.5643,300.7773,0,U,40973,999,11455,.21059098E-3,.2455E-4,0
BISONSAT,2015-058L,2026-06-16T07:22:59.314080,15.16172394,.00789591,64.7577,176.4885,47.6483,313.1292,0,U,40974,999,11548,.47415187E-3,.9756E-4,0
SNAP-3 JIMI,2015-058M,2026-06-16T06:10:24.933792,15.02291557,.01061112,64.7638,222.7151,55.7451,305.3661,0,U,40975,999,11408,.25193075E-3,.3579E-4,0
PROPCUBE 1 (FLORA),2015-058N,2026-06-15T17:14:31.249536,14.89216736,.01306722,64.7756,299.7878,61.4958,299.9240,0,U,40976,999,11604,.20034336E-3,.2053E-4,0
SINOD-D 3,2015-058P,2026-06-16T00:52:03.067968,14.94010330,.01192178,64.7737,279.4132,58.5809,302.6897,0,U,40977,999,11458,.23458285E-3,.2706E-4,0
HORYU-4,2016-012D,2026-06-15T10:27:05.146272,15.94546005,.00051492,30.9849,91.8834,261.3375,98.6703,0,U,41340,999,57053,.9799184E-3,.392649E-2,.54782598E-4
RAVAN,2016-067B,2026-06-16T04:57:58.152384,15.54600070,.0004577,97.9887,56.6661,35.0328,325.1224,0,U,41849,999,52754,.62972608E-3,.4167E-3,0
CELTEE 1,2016-067C,2026-06-16T03:41:09.933216,15.19674343,.00009094,98.0670,33.6503,125.3838,234.7480,0,U,41850,999,52572,.19583425E-3,.41E-4,0
OPTICUBE 04,2016-067D,2026-06-16T03:37:47.554176,15.09654618,.00168453,98.0695,19.3809,118.8565,241.4355,0,U,41851,999,52501,.12480775E-3,.1943E-4,0
AEROCUBE 8D,2016-067E,2026-06-16T04:06:11.067552,15.24386276,.00046434,98.0680,37.2651,125.6494,234.5174,0,U,41852,999,52591,.25016214E-3,.6049E-4,0
AEROCUBE 8C,2016-067F,2026-06-16T04:42:24.369696,15.24634486,.00066439,98.0550,34.5211,71.7801,288.4158,0,U,41853,999,52591,.24648957E-3,.6006E-4,0
CORVUS BC2,2017-042X,2026-06-16T06:21:22.025664,15.06291357,.00142665,97.4061,328.6501,113.4220,246.8509,0,U,42846,999,48692,.24963859E-3,.3615E-4,0
CORVUS BC1,2017-042Y,2026-06-16T06:13:45.295392,15.06461751,.00132978,97.4096,329.4586,91.9909,268.2841,0,U,42847,999,48695,.22628694E-3,.3286E-4,0
MAKERSAT 0,2017-073D,2026-06-16T04:48:20.960640,15.32072415,.01051407,97.4625,49.7119,276.5559,82.3722,0,U,43016,999,46631,.39786947E-3,.14594E-3,0
